start=new Date('2021-09-22T00:00:00.000Z').valueOf();
sats=[{"EPHEMERIS_TYPE":"0","OBJECT_TYPE":"PAYLOAD","OBJECT_NAME":"STARLINK-1864","INCLINATION":"53.0557","ELEMENT_SET_NO":"999","ARG_OF_PERICENTER":"100.3358","REF_FRAME":"TEME","EPOCH":"2021-09-21T09:54:09.706176","MEAN_MOTION_DOT":"0.00000764","MEAN_MOTION_DDOT":"0.0000000000000","MEAN_MOTION":"15.06403247","GP_ID":"185157861","FILE":"3121847","CENTER_NAME":"EARTH","ECCENTRICITY":"0.00016060","LAUNCH_DATE":"2020-11-25","PERIOD":"95.592","SITE":"AFETR","MEAN_ELEMENT_THEORY":"SGP4","REV_AT_EPOCH":"4611","RCS_SIZE":"LARGE","APOAPSIS":"548.316","RA_OF_ASC_NODE":"60.2124","COUNTRY_CODE":"US","TLE_LINE2":"2 47151  53.0557  60.2124 0001606 100.3358 259.7812 15.06403247 46111","BSTAR":"0.00007019300000","OBJECT_ID":"2020-088AF","PERIAPSIS":"546.091","SEMIMAJOR_AXIS":"6925.339","TIME_SYSTEM":"UTC","CLASSIFICATION_TYPE":"U","NORAD_CAT_ID":"47151","MEAN_ANOMALY":"259.7812","TLE_LINE1":"1 47151U 20088AF  21264.41261234  .00000764  00000-0  70193-4 0  9995","DECAY_DATE":null},{"FILE":"3122258","MEAN_MOTION":"15.06404153","GP_ID":"185189548","REF_FRAME":"TEME","EPOCH":"2021-09-21T19:06:11.492640","MEAN_MOTION_DOT":"0.00001158","MEAN_MOTION_DDOT":"0.0000000000000","ARG_OF_PERICENTER":"99.3546","INCLINATION":"53.0555","ELEMENT_SET_NO":"999","OBJECT_NAME":"STARLINK-1866","OBJECT_TYPE":"PAYLOAD","EPHEMERIS_TYPE":"0","MEAN_ELEMENT_THEORY":"SGP4","SITE":"AFETR","PERIOD":"95.592","LAUNCH_DATE":"2020-11-25","ECCENTRICITY":"0.00019100","CENTER_NAME":"EARTH","OBJECT_ID":"2020-088AG","BSTAR":"0.00009661300000","TLE_LINE2":"2 47152  53.0555  58.5052 0001910  99.3546 260.7659 15.06404153 46178","RA_OF_ASC_NODE":"58.5052","COUNTRY_CODE":"US","APOAPSIS":"548.524","RCS_SIZE":"LARGE","REV_AT_EPOCH":"4617","DECAY_DATE":null,"TLE_LINE1":"1 47152U 20088AG  21264.79596635  .00001158  00000-0  96613-4 0  9996","MEAN_ANOMALY":"260.7659","CLASSIFICATION_TYPE":"U","NORAD_CAT_ID":"47152","PERIAPSIS":"545.878","TIME_SYSTEM":"UTC","SEMIMAJOR_AXIS":"6925.336"},{"TLE_LINE1":"1 47153U 20088AH  21264.83694468 -.00000475  00000-0 -12969-4 0  9990","DECAY_DATE":null,"PERIAPSIS":"545.959","TIME_SYSTEM":"UTC","SEMIMAJOR_AXIS":"6925.365","MEAN_ANOMALY":"267.4054","CLASSIFICATION_TYPE":"U","NORAD_CAT_ID":"47153","RA_OF_ASC_NODE":"63.3198","COUNTRY_CODE":"US","OBJECT_ID":"2020-088AH","TLE_LINE2":"2 47153  53.0567  63.3198 0001835  92.7145 267.4054 15.06394777 46112","BSTAR":"-0.00001296900000","REV_AT_EPOCH":"4611","APOAPSIS":"548.500","RCS_SIZE":"LARGE","PERIOD":"95.592","MEAN_ELEMENT_THEORY":"SGP4","SITE":"AFETR","CENTER_NAME":"EARTH","LAUNCH_DATE":"2020-11-25","ECCENTRICITY":"0.00018350","EPOCH":"2021-09-21T20:05:12.020352","REF_FRAME":"TEME","MEAN_MOTION_DDOT":"0.0000000000000","MEAN_MOTION_DOT":"-0.00000475","ARG_OF_PERICENTER":"92.7145","FILE":"3122258","MEAN_MOTION":"15.06394777","GP_ID":"185188296","OBJECT_TYPE":"PAYLOAD","EPHEMERIS_TYPE":"0","INCLINATION":"53.0567","ELEMENT_SET_NO":"999","OBJECT_NAME":"STARLINK-1867"},{"RA_OF_ASC_NODE":"48.9349","COUNTRY_CODE":"US","BSTAR":"-0.00002071900000","TLE_LINE2":"2 47154  53.0563  48.9349 0001312  99.5086 260.6052 15.06405135 46300","OBJECT_ID":"2020-088AJ","REV_AT_EPOCH":"4630","RCS_SIZE":"LARGE","APOAPSIS":"548.106","TLE_LINE1":"1 47154U 20088AJ  21264.70104724 -.00000590  00000-0 -20719-4 0  9998","DECAY_DATE":null,"PERIAPSIS":"546.289","TIME_SYSTEM":"UTC","SEMIMAJOR_AXIS":"6925.333","CLASSIFICATION_TYPE":"U","NORAD_CAT_ID":"47154","MEAN_ANOMALY":"260.6052","ARG_OF_PERICENTER":"99.5086","EPOCH":"2021-09-21T16:49:30.481536","REF_FRAME":"TEME","MEAN_MOTION_DOT":"-0.00000590","MEAN_MOTION_DDOT":"0.0000000000000","MEAN_MOTION":"15.06405135","GP_ID":"185189044","FILE":"3122258","EPHEMERIS_TYPE":"0","OBJECT_TYPE":"PAYLOAD","OBJECT_NAME":"STARLINK-1868","ELEMENT_SET_NO":"999","INCLINATION":"53.0563","PERIOD":"95.592","SITE":"AFETR","MEAN_ELEMENT_THEORY":"SGP4","CENTER_NAME":"EARTH","ECCENTRICITY":"0.00013120","LAUNCH_DATE":"2020-11-25"},{"ECCENTRICITY":"0.00017290","LAUNCH_DATE":"2020-11-25","CENTER_NAME":"EARTH","MEAN_ELEMENT_THEORY":"SGP4","SITE":"AFETR","PERIOD":"95.593","OBJECT_NAME":"STARLINK-1869","ELEMENT_SET_NO":"999","INCLINATION":"53.0537","EPHEMERIS_TYPE":"0","OBJECT_TYPE":"PAYLOAD","GP_ID":"185189298","MEAN_MOTION":"15.06392462","FILE":"3122258","ARG_OF_PERICENTER":"92.4747","MEAN_MOTION_DOT":"-0.00000850","MEAN_MOTION_DDOT":"0.0000000000000","EPOCH":"2021-09-21T17:39:56.031552","REF_FRAME":"TEME","NORAD_CAT_ID":"47155","CLASSIFICATION_TYPE":"U","MEAN_ANOMALY":"267.6440","SEMIMAJOR_AXIS":"6925.372","TIME_SYSTEM":"UTC","PERIAPSIS":"546.039","DECAY_DATE":null,"TLE_LINE1":"1 47155U 20088AK  21264.73606518 -.00000850  00000-0 -38178-4 0  9997","RCS_SIZE":"LARGE","APOAPSIS":"548.434","REV_AT_EPOCH":"4602","TLE_LINE2":"2 47155  53.0537  68.7652 0001729  92.4747 267.6440 15.06392462 46022","BSTAR":"-0.00003817800000","OBJECT_ID":"2020-088AK","COUNTRY_CODE":"US","RA_OF_ASC_NODE":"68.7652"},{"RCS_SIZE":"LARGE","APOAPSIS":"440.974","REV_AT_EPOCH":"4716","TLE_LINE2":"2 47156  53.0575   5.1550 0001882  40.5979 319.5166 15.42175831 47165","BSTAR":"0.00007958300000","OBJECT_ID":"2020-088AL","RA_OF_ASC_NODE":"5.1550","COUNTRY_CODE":"US","CLASSIFICATION_TYPE":"U","NORAD_CAT_ID":"47156","MEAN_ANOMALY":"319.5166","PERIAPSIS":"438.408","TIME_SYSTEM":"UTC","SEMIMAJOR_AXIS":"6817.826","DECAY_DATE":null,"TLE_LINE1":"1 47156U 20088AL  21264.57359475  .00003055  00000-0  79583-4 0  9990","OBJECT_NAME":"STARLINK-1870","INCLINATION":"53.0575","ELEMENT_SET_NO":"999","EPHEMERIS_TYPE":"0","OBJECT_TYPE":"PAYLOAD","MEAN_MOTION":"15.42175831","GP_ID":"185164532","FILE":"3122040","ARG_OF_PERICENTER":"40.5979","REF_FRAME":"TEME","EPOCH":"2021-09-21T13:45:58.586400","MEAN_MOTION_DDOT":"0.0000000000000","MEAN_MOTION_DOT":"0.00003055","ECCENTRICITY":"0.00018820","LAUNCH_DATE":"2020-11-25","CENTER_NAME":"EARTH","SITE":"AFETR","MEAN_ELEMENT_THEORY":"SGP4","PERIOD":"93.375"},{"MEAN_MOTION":"15.06399406","GP_ID":"185188794","FILE":"3122258","ARG_OF_PERICENTER":"96.0962","EPOCH":"2021-09-21T20:09:52.069536","REF_FRAME":"TEME","MEAN_MOTION_DDOT":"0.0000000000000","MEAN_MOTION_DOT":"-0.00000344","OBJECT_NAME":"STARLINK-1871","INCLINATION":"53.0560","ELEMENT_SET_NO":"999","EPHEMERIS_TYPE":"0","OBJECT_TYPE":"PAYLOAD","SITE":"AFETR","MEAN_ELEMENT_THEORY":"SGP4","PERIOD":"95.592","ECCENTRICITY":"0.00018140","LAUNCH_DATE":"2020-11-25","CENTER_NAME":"EARTH","TLE_LINE2":"2 47157  53.0560  58.3069 0001814  96.0962 264.0234 15.06399406 46185","BSTAR":"-0.00000421730000","OBJECT_ID":"2020-088AM","RA_OF_ASC_NODE":"58.3069","COUNTRY_CODE":"US","RCS_SIZE":"LARGE","APOAPSIS":"548.472","REV_AT_EPOCH":"4618","DECAY_DATE":null,"TLE_LINE1":"1 47157U 20088AM  21264.84018599 -.00000344  00000-0 -42173-5 0  9996","CLASSIFICATION_TYPE":"U","NORAD_CAT_ID":"47157","MEAN_ANOMALY":"264.0234","PERIAPSIS":"545.959","SEMIMAJOR_AXIS":"6925.350","TIME_SYSTEM":"UTC"},{"OBJECT_NAME":"STARLINK-1873","INCLINATION":"53.0557","ELEMENT_SET_NO":"999","EPHEMERIS_TYPE":"0","OBJECT_TYPE":"PAYLOAD","GP_ID":"185188547","MEAN_MOTION":"15.06397270","FILE":"3122258","ARG_OF_PERICENTER":"104.7334","MEAN_MOTION_DDOT":"0.0000000000000","MEAN_MOTION_DOT":"0.00000111","REF_FRAME":"TEME","EPOCH":"2021-09-21T20:43:02.483616","ECCENTRICITY":"0.00015070","LAUNCH_DATE":"2020-11-25","CENTER_NAME":"EARTH","SITE":"AFETR","MEAN_ELEMENT_THEORY":"SGP4","PERIOD":"95.592","RCS_SIZE":"LARGE","APOAPSIS":"548.266","REV_AT_EPOCH":"4632","TLE_LINE2":"2 47158  53.0557  48.1792 0001507 104.7334 255.3822 15.06397270 46320","BSTAR":"0.00002637500000","OBJECT_ID":"2020-088AN","COUNTRY_CODE":"US","RA_OF_ASC_NODE":"48.1792","NORAD_CAT_ID":"47158","CLASSIFICATION_TYPE":"U","MEAN_ANOMALY":"255.3822","SEMIMAJOR_AXIS":"6925.357","TIME_SYSTEM":"UTC","PERIAPSIS":"546.178","DECAY_DATE":null,"TLE_LINE1":"1 47158U 20088AN  21264.86322319  .00000111  00000-0  26375-4 0  9992"},{"MEAN_ELEMENT_THEORY":"SGP4","SITE":"AFETR","PERIOD":"95.593","ECCENTRICITY":"0.00014980","LAUNCH_DATE":"2020-11-25","CENTER_NAME":"EARTH","MEAN_MOTION":"15.06391798","GP_ID":"185189796","FILE":"3122258","ARG_OF_PERICENTER":"108.0858","EPOCH":"2021-09-21T20:36:25.382304","REF_FRAME":"TEME","MEAN_MOTION_DDOT":"0.0000000000000","MEAN_MOTION_DOT":"-0.00001064","OBJECT_NAME":"STARLINK-1874","INCLINATION":"53.0559","ELEMENT_SET_NO":"999","EPHEMERIS_TYPE":"0","OBJECT_TYPE":"PAYLOAD","DECAY_DATE":null,"TLE_LINE1":"1 47159U 20088AP  21264.85862711 -.00001064  00000-0 -52532-4 0  9991","CLASSIFICATION_TYPE":"U","NORAD_CAT_ID":"47159","MEAN_ANOMALY":"252.0294","PERIAPSIS":"546.201","TIME_SYSTEM":"UTC","SEMIMAJOR_AXIS":"6925.374","BSTAR":"-0.00005253200000","TLE_LINE2":"2 47159  53.0559  58.2281 0001498 108.0858 252.0294 15.06391798 46185","OBJECT_ID":"2020-088AP","RA_OF_ASC_NODE":"58.2281","COUNTRY_CODE":"US","RCS_SIZE":"LARGE","APOAPSIS":"548.276","REV_AT_EPOCH":"4618"},{"TLE_LINE2":"2 47160  53.0557  36.4703 0001511  55.2118 304.9029 15.42182409 46494","BSTAR":"0.00034886000000","OBJECT_ID":"2020-088AQ","COUNTRY_CODE":"US","RA_OF_ASC_NODE":"36.4703","RCS_SIZE":"LARGE","APOAPSIS":"440.702","REV_AT_EPOCH":"4649","DECAY_DATE":null,"TLE_LINE1":"1 47160U 20088AQ  21264.85983533  .00014811  00000-0  34886-3 0  9992","NORAD_CAT_ID":"47160","CLASSIFICATION_TYPE":"U","MEAN_ANOMALY":"304.9029","SEMIMAJOR_AXIS":"6817.807","TIME_SYSTEM":"UTC","PERIAPSIS":"438.641","GP_ID":"185189549","MEAN_MOTION":"15.42182409","FILE":"3122258","ARG_OF_PERICENTER":"55.2118","MEAN_MOTION_DOT":"0.00014811","MEAN_MOTION_DDOT":"0.0000000000000","REF_FRAME":"TEME","EPOCH":"2021-09-21T20:38:09.772512","OBJECT_NAME":"STARLINK-1875","INCLINATION":"53.0557","ELEMENT_SET_NO":"999","EPHEMERIS_TYPE":"0","OBJECT_TYPE":"PAYLOAD","MEAN_ELEMENT_THEORY":"SGP4","SITE":"AFETR","PERIOD":"93.374","ECCENTRICITY":"0.00015110","LAUNCH_DATE":"2020-11-25","CENTER_NAME":"EARTH"}];
